NORAD_CAT_ID,OBJECT_NAME,OBJECT_TYPE,EPOCH,MEAN_MOTION,ECCENTRICITY,INCLINATION,RA_OF_ASC_NODE,ARG_OF_PERICENTER,MEAN_ANOMALY,BSTAR,MEAN_MOTION_DOT,MEAN_MOTION_DDOT,TLE_LINE0,TLE_LINE1,TLE_LINE2,SEMIMAJOR_AXIS,PERIOD,APOGEE,PERIGEE,DECAYED
53979.0,STARLINK-5123,PAYLOAD,2023-03-10 11:38:04,15.08868707,0.0001158,53.2164,95.6769,104.2422,255.8699,0.0010566,0.00016581,0.0,0 STARLINK-5123,1 53979U 22125R   23069.48477287  .00016581  00000-0  10566-2 0  9993,2 53979  53.2164  95.6769 0001158 104.2422 255.8699 15.08868707 24053,6917.793,95.436,540.459,538.857,0.0
53979.0,STARLINK-5123,PAYLOAD,2023-03-11 00:21:10,15.08830191,0.000168,53.2174,93.2968,91.6314,268.4871,0.00074881,0.00011646,0.0,0 STARLINK-5123,1 53979U 22125R   23070.01470208  .00011646  00000-0  74881-3 0  9998,2 53979  53.2174  93.2968 0001680  91.6314 268.4871 15.08830191 24203,6917.91,95.438,540.938,538.613,0.0
53979.0,STARLINK-5123,PAYLOAD,2023-03-11 06:42:42,15.08870996,0.0001457,53.2173,92.1072,80.7519,279.3638,0.0019869,0.00031502,0.0,0 STARLINK-5123,1 53979U 22125R   23070.27965697  .00031502  00000-0  19869-2 0  9994,2 53979  53.2173  92.1072 0001457  80.7519 279.3638 15.08870996 24247,6917.786,95.436,540.659,538.643,0.0
53979.0,STARLINK-5123,PAYLOAD,2023-03-11 08:18:05,15.08879655,0.0001621,53.2176,91.8104,62.5158,297.5998,0.0017742,0.00028092,0.0,0 STARLINK-5123,1 53979U 22125R   23070.34589525  .00028092  00000-0  17742-2 0  9992,2 53979  53.2176  91.8104 0001621  62.5158 297.5998 15.08879655 24187,6917.759,95.435,540.746,538.503,0.0
53979.0,STARLINK-5123,PAYLOAD,2023-03-12 01:47:20,15.08840717,0.0001514,53.2174,88.5393,113.7088,246.4064,0.00074965,0.00011663,0.0,0 STARLINK-5123,1 53979U 22125R   23071.07453761  .00011663  00000-0  74965-3 0  9992,2 53979  53.2174  88.5393 0001514 113.7088 246.4064 15.08840717 24364,6917.878,95.438,540.791,538.696,0.0
53979.0,STARLINK-5123,PAYLOAD,2023-03-12 04:58:06,15.08823335,0.0001383,53.2171,87.9459,109.2959,250.8183,0.00062714,9.703e-05,0.0,0 STARLINK-5123,1 53979U 22125R   23071.20701969  .00009703  00000-0  62714-3 0  9994,2 53979  53.2171  87.9459 0001383 109.2959 250.8183 15.08823335 24388,6917.931,95.439,540.753,538.84,0.0
53979.0,STARLINK-5123,PAYLOAD,2023-03-12 06:33:29,15.08828926,0.0001438,53.2171,87.6484,105.3298,254.7853,0.00029467,4.403e-05,0.0,0 STARLINK-5123,1 53979U 22125R   23071.27325995  .00004403  00000-0  29467-3 0  9992,2 53979  53.2171  87.6484 0001438 105.3298 254.7853 15.08828926 24329,6917.914,95.438,540.774,538.784,0.0
53979.0,STARLINK-5123,PAYLOAD,2023-03-13 01:38:07,15.08837002,0.0001201,53.218,84.0813,94.6776,265.4353,0.00075675,0.00011775,0.0,0 STARLINK-5123,1 53979U 22125R   23072.06814722  .00011775  00000-0  75675-3 0  9993,2 53979  53.2180  84.0813 0001201  94.6776 265.4353 15.08837002 24447,6917.89,95.438,540.585,538.924,0.0
53979.0,STARLINK-5123,PAYLOAD,2023-03-14 01:28:55,15.08843994,0.0001157,53.2167,79.6202,90.8959,269.2165,0.00040408,6.15e-05,0.0,0 STARLINK-5123,1 53979U 22125R   23073.06174811  .00006150  00000-0  40408-3 0  9999,2 53979  53.2167  79.6202 0001157  90.8959 269.2165 15.08843994 24669,6917.868,95.437,540.534,538.933,0.0
53979.0,STARLINK-5123,PAYLOAD,2023-03-14 07:50:27,15.08844201,0.0001185,53.2167,78.4308,90.5528,269.5599,0.00033532,5.053e-05,0.0,0 STARLINK-5123,1 53979U 22125R   23073.32670814  .00005053  00000-0  33532-3 0  9993,2 53979  53.2167  78.4308 0001185  90.5528 269.5599 15.08844201 24636,6917.868,95.437,540.552,538.913,0.0
53979.0,STARLINK-5123,PAYLOAD,2023-03-14 17:22:46,15.08846156,0.0001283,53.2173,76.6471,89.3477,270.7662,0.00032152,4.834e-05,0.0,0 STARLINK-5123,1 53979U 22125R   23073.72414777  .00004834  00000-0  32152-3 0  9994,2 53979  53.2173  76.6471 0001283  89.3477 270.7662 15.08846156 24694,6917.862,95.437,540.614,538.839,0.0
53979.0,STARLINK-5123,PAYLOAD,2023-03-15 04:30:28,15.08853602,0.0001396,53.2181,74.566,87.084,273.0312,0.00038726,5.883e-05,0.0,0 STARLINK-5123,1 53979U 22125R   23074.18782437  .00005883  00000-0  38726-3 0  9994,2 53979  53.2181  74.5660 0001396  87.0840 273.0312 15.08853602 24832,6917.839,95.437,540.67,538.738,0.0
53979.0,STARLINK-5123,PAYLOAD,2023-03-15 07:41:14,15.08860331,0.0001476,53.218,73.9711,87.3155,272.8006,0.00052132,8.023e-05,0.0,0 STARLINK-5123,1 53979U 22125R   23074.32030159  .00008023  00000-0  52132-3 0  9993,2 53979  53.2180  73.9711 0001476  87.3155 272.8006 15.08860331 24780,6917.818,95.436,540.704,538.662,0.0
53979.0,STARLINK-5123,PAYLOAD,2023-03-15 23:35:05,15.08851596,0.0001439,53.2182,70.998,138.499,221.6112,0.00021404,3.121e-05,0.0,0 STARLINK-5123,1 53979U 22125R   23074.98269878  .00003121  00000-0  21404-3 0  9999,2 53979  53.2182  70.9980 0001439 138.4990 221.6112 15.08851596 24953,6917.845,95.437,540.705,538.714,0.0
53979.0,STARLINK-5123,PAYLOAD,2023-03-16 09:07:24,15.08849366,0.0001035,53.217,69.2128,95.7878,264.3232,0.00019258,2.779e-05,0.0,0 STARLINK-5123,1 53979U 22125R   23075.38014024  .00002779  00000-0  19258-3 0  9997,2 53979  53.2170  69.2128 0001035  95.7878 264.3232 15.08849366 24945,6917.852,95.437,540.433,539.001,0.0
53979.0,STARLINK-5123,PAYLOAD,2023-03-16 17:04:20,15.08839683,0.0001083,53.2175,67.7264,86.4048,273.7068,1.4688e-05,-5.4e-07,0.0,0 STARLINK-5123,1 53979U 22125R   23075.71134385 -.00000054  00000-0  14688-4 0  9995,2 53979  53.2175  67.7264 0001083  86.4048 273.7068 15.08839683 25069,6917.881,95.438,540.496,538.997,0.0
53979.0,STARLINK-5123,PAYLOAD,2023-03-17 08:58:11,15.08836372,0.0001139,53.2177,64.7527,90.0165,270.0958,2.1229e-05,5e-07,0.0,0 STARLINK-5123,1 53979U 22125R   23076.37374828  .00000050  00000-0  21229-4 0  9990,2 53979  53.2177  64.7527 0001139  90.0165 270.0958 15.08836372 25096,6917.891,95.438,540.544,538.969,0.0
53979.0,STARLINK-5123,PAYLOAD,2023-03-18 08:48:58,15.08848835,0.0001034,53.2179,60.2921,89.5797,270.5313,0.00037721,5.722e-05,0.0,0 STARLINK-5123,1 53979U 22125R   23077.36734734  .00005722  00000-0  37721-3 0  9990,2 53979  53.2179  60.2921 0001034  89.5797 270.5313 15.08848835 25317,6917.853,95.437,540.434,539.003,0.0
53979.0,STARLINK-5123,PAYLOAD,2023-03-19 03:53:36,15.08839908,0.000128,53.2176,56.7234,87.6237,272.4901,0.00016459,2.333e-05,0.0,0 STARLINK-5123,1 53979U 22125R   23078.16223106  .00002333  00000-0  16459-3 0  9995,2 53979  53.2176  56.7234 0001280  87.6237 272.4901 15.08839908 25430,6917.881,95.438,540.631,538.86,0.0
53979.0,STARLINK-5123,PAYLOAD,2023-03-19 05:28:59,15.08844483,0.0001113,53.2176,56.4266,83.427,276.6848,0.00020894,3.039e-05,0.0,0 STARLINK-5123,1 53979U 22125R   23078.22846869  .00003039  00000-0  20894-3 0  9991,2 53979  53.2176  56.4266 0001113  83.4270 276.6848 15.08844483 25371,6917.867,95.437,540.502,538.962,0.0
53979.0,STARLINK-5123,PAYLOAD,2023-03-19 15:01:18,15.08840089,0.0001028,53.2171,54.6424,78.5084,281.6023,7.5291e-05,9.11e-06,0.0,0 STARLINK-5123,1 53979U 22125R   23078.62591061  .00000911  00000-0  75291-4 0  9994,2 53979  53.2171  54.6424 0001028  78.5084 281.6023 15.08840089 25431,6917.88,95.438,540.456,539.034,0.0
53979.0,STARLINK-5123,PAYLOAD,2023-03-20 05:19:46,15.08845768,0.0001325,53.2185,51.9691,102.9759,257.1381,4.1151e-05,3.67e-06,0.0,0 STARLINK-5123,1 53979U 22125R   23079.22207056  .00000367  00000-0  41151-4 0  9992,2 53979  53.2185  51.9691 0001325 102.9759 257.1381 15.08845768 25594,6917.863,95.437,540.644,538.811,0.0
53979.0,STARLINK-5123,PAYLOAD,2023-03-20 06:55:09,15.0884684,0.0001287,53.2192,51.6719,100.0159,260.0978,6.7067e-05,7.8e-06,0.0,0 STARLINK-5123,1 53979U 22125R   23079.28830815  .00000780  00000-0  67067-4 0  9996,2 53979  53.2192  51.6719 0001287 100.0159 260.0978 15.08846840 25531,6917.859,95.437,540.615,538.834,0.0
53979.0,STARLINK-5123,PAYLOAD,2023-03-21 06:45:56,15.0884881,0.000152,53.2192,47.2097,102.3082,257.808,0.00015622,2.2e-05,0.0,0 STARLINK-5123,1 53979U 22125R   23080.28190694  .00002200  00000-0  15622-3 0  9990,2 53979  53.2192  47.2097 0001520 102.3082 257.8080 15.08848810 25752,6917.853,95.437,540.77,538.667,0.0
53979.0,STARLINK-5123,PAYLOAD,2023-03-22 05:01:21,15.08836296,0.0001342,53.2192,43.0478,107.5275,252.5863,1.4608e-05,-5.5e-07,0.0,0 STARLINK-5123,1 53979U 22125R   23081.20927642 -.00000055  00000-0  14608-4 0  9995,2 53979  53.2192  43.0478 0001342 107.5275 252.5863 15.08836296 25893,6917.892,95.438,540.685,538.828,0.0
53979.0,STARLINK-5123,PAYLOAD,2023-03-22 06:36:44,15.08836886,0.0001249,53.2187,42.7492,101.7174,258.3959,1.9021e-05,1.5e-07,0.0,0 STARLINK-5123,1 53979U 22125R   23081.27551625  .00000015  00000-0  19021-4 0  9995,2 53979  53.2187  42.7492 0001249 101.7174 258.3959 15.08836886 25838,6917.89,95.438,540.619,538.891,0.0
53979.0,STARLINK-5123,PAYLOAD,2023-03-23 04:52:07,15.08860049,0.0001137,53.2195,38.5859,113.3135,246.7977,0.00030115,4.511e-05,0.0,0 STARLINK-5123,1 53979U 22125R   23082.20286610  .00004511  00000-0  30115-3 0  9999,2 53979  53.2195  38.5859 0001137 113.3135 246.7977 15.08860049 26042,6917.819,95.436,540.471,538.898,0.0
53979.0,STARLINK-5123,PAYLOAD,2023-03-23 06:27:30,15.08861117,0.0001107,53.2195,38.2884,112.6647,247.4462,0.00031803,4.78e-05,0.0,0 STARLINK-5123,1 53979U 22125R   23082.26910525  .00004780  00000-0  31803-3 0  9997,2 53979  53.2195  38.2884 0001107 112.6647 247.4462 15.08861117 25980,6917.816,95.436,540.447,538.915,0.0
53979.0,STARLINK-5123,PAYLOAD,2023-03-24 03:07:31,15.08864381,0.0001145,53.2189,34.423,83.9697,276.1426,0.00065093,0.00010094,0.0,0 STARLINK-5123,1 53979U 22125R   23083.13023116  .00010094  00000-0  65093-3 0  9998,2 53979  53.2189  34.4230 0001145  83.9697 276.1426 15.08864381 26181,6917.806,95.436,540.463,538.879,0.0
53979.0,STARLINK-5123,PAYLOAD,2023-03-24 06:18:17,15.08891168,0.0001235,53.2192,33.8279,84.5612,275.5521,0.0012292,0.00019356,0.0,0 STARLINK-5123,1 53979U 22125R   23083.26270445  .00019356  00000-0  12292-2 0  9993,2 53979  53.2192  33.8279 0001235  84.5612 275.5521 15.08891168 26200,6917.724,95.434,540.443,538.735,0.0
